[{"OBJECT_NAME":"ONEWEB-0500","OBJECT_ID":"2022-138F","EPOCH":"2026-03-03T16:11:59.792640","MEAN_MOTION":13.19726642,"ECCENTRICITY":0.0001812,"INCLINATION":87.9241,"RA_OF_ASC_NODE":325.9817,"ARG_OF_PERICENTER":79.6985,"MEAN_ANOMALY":280.4352,"EPHEMERIS_TYPE":0,"CLASSIFICATION_TYPE":"U","NORAD_CAT_ID":54118,"ELEMENT_SET_NO":999,"REV_AT_EPOCH":16291,"BSTAR":0.00027446,"MEAN_MOTION_DOT":1.23e-6,"MEAN_MOTION_DDOT":0},{"OBJECT_NAME":"ONEWEB-0501","OBJECT_ID":"2022-138G","EPOCH":"2026-03-03T16:55:13.537056","MEAN_MOTION":13.19725626,"ECCENTRICITY":0.0001577,"INCLINATION":87.9239,"RA_OF_ASC_NODE":325.9765,"ARG_OF_PERICENTER":92.4636,"MEAN_ANOMALY":267.6677,"EPHEMERIS_TYPE":0,"CLASSIFICATION_TYPE":"U","NORAD_CAT_ID":54119,"ELEMENT_SET_NO":999,"REV_AT_EPOCH":16289,"BSTAR":1.7899e-5,"MEAN_MOTION_DOT":2.0e-7,"MEAN_MOTION_DDOT":0},{"OBJECT_NAME":"ONEWEB-0502","OBJECT_ID":"2022-138H","EPOCH":"2026-03-03T18:23:55.273344","MEAN_MOTION":13.19725207,"ECCENTRICITY":0.0001469,"INCLINATION":87.9246,"RA_OF_ASC_NODE":325.9486,"ARG_OF_PERICENTER":86.4315,"MEAN_ANOMALY":273.6985,"EPHEMERIS_TYPE":0,"CLASSIFICATION_TYPE":"U","NORAD_CAT_ID":54120,"ELEMENT_SET_NO":999,"REV_AT_EPOCH":16292,"BSTAR":0.00017886,"MEAN_MOTION_DOT":8.5e-7,"MEAN_MOTION_DDOT":0},{"OBJECT_NAME":"ONEWEB-0503","OBJECT_ID":"2022-138J","EPOCH":"2026-03-03T16:18:49.463424","MEAN_MOTION":13.1972546,"ECCENTRICITY":0.0001512,"INCLINATION":87.9247,"RA_OF_ASC_NODE":325.9699,"ARG_OF_PERICENTER":72.8125,"MEAN_ANOMALY":287.3174,"EPHEMERIS_TYPE":0,"CLASSIFICATION_TYPE":"U","NORAD_CAT_ID":54121,"ELEMENT_SET_NO":999,"REV_AT_EPOCH":16290,"BSTAR":0.00022012,"MEAN_MOTION_DOT":1.01e-6,"MEAN_MOTION_DDOT":0},{"OBJECT_NAME":"ONEWEB-0504","OBJECT_ID":"2022-138K","EPOCH":"2026-03-03T17:49:48.722592","MEAN_MOTION":13.19726048,"ECCENTRICITY":0.0001494,"INCLINATION":87.9243,"RA_OF_ASC_NODE":325.968,"ARG_OF_PERICENTER":84.9639,"MEAN_ANOMALY":275.1664,"EPHEMERIS_TYPE":0,"CLASSIFICATION_TYPE":"U","NORAD_CAT_ID":54122,"ELEMENT_SET_NO":999,"REV_AT_EPOCH":16292,"BSTAR":0.00014777,"MEAN_MOTION_DOT":7.2e-7,"MEAN_MOTION_DDOT":0},{"OBJECT_NAME":"ONEWEB-0505","OBJECT_ID":"2022-138L","EPOCH":"2026-03-03T17:45:15.416064","MEAN_MOTION":13.19726022,"ECCENTRICITY":0.0001466,"INCLINATION":87.9248,"RA_OF_ASC_NODE":325.9646,"ARG_OF_PERICENTER":96.4267,"MEAN_ANOMALY":263.7032,"EPHEMERIS_TYPE":0,"CLASSIFICATION_TYPE":"U","NORAD_CAT_ID":54123,"ELEMENT_SET_NO":999,"REV_AT_EPOCH":16290,"BSTAR":0.00028086,"MEAN_MOTION_DOT":1.25e-6,"MEAN_MOTION_DDOT":0},{"OBJECT_NAME":"ONEWEB-0506","OBJECT_ID":"2022-138M","EPOCH":"2026-03-03T17:08:52.112256","MEAN_MOTION":13.1972621,"ECCENTRICITY":0.000154,"INCLINATION":87.9248,"RA_OF_ASC_NODE":325.967,"ARG_OF_PERICENTER":88.981,"MEAN_ANOMALY":271.1499,"EPHEMERIS_TYPE":0,"CLASSIFICATION_TYPE":"U","NORAD_CAT_ID":54124,"ELEMENT_SET_NO":999,"REV_AT_EPOCH":16289,"BSTAR":-0.00012421,"MEAN_MOTION_DOT":-3.7e-7,"MEAN_MOTION_DDOT":0},{"OBJECT_NAME":"ONEWEB-0507","OBJECT_ID":"2022-138N","EPOCH":"2026-03-03T17:38:25.530144","MEAN_MOTION":13.19726926,"ECCENTRICITY":0.0001667,"INCLINATION":87.9236,"RA_OF_ASC_NODE":325.9851,"ARG_OF_PERICENTER":86.5518,"MEAN_ANOMALY":273.5805,"EPHEMERIS_TYPE":0,"CLASSIFICATION_TYPE":"U","NORAD_CAT_ID":54125,"ELEMENT_SET_NO":999,"REV_AT_EPOCH":16294,"BSTAR":0.00021217,"MEAN_MOTION_DOT":9.8e-7,"MEAN_MOTION_DDOT":0},{"OBJECT_NAME":"ONEWEB-0508","OBJECT_ID":"2022-138P","EPOCH":"2026-03-03T17:33:52.050816","MEAN_MOTION":13.19723874,"ECCENTRICITY":0.0001783,"INCLINATION":87.924,"RA_OF_ASC_NODE":325.9842,"ARG_OF_PERICENTER":94.287,"MEAN_ANOMALY":265.8466,"EPHEMERIS_TYPE":0,"CLASSIFICATION_TYPE":"U","NORAD_CAT_ID":54126,"ELEMENT_SET_NO":999,"REV_AT_EPOCH":16292,"BSTAR":5.0621e-5,"MEAN_MOTION_DOT":3.3e-7,"MEAN_MOTION_DDOT":0},{"OBJECT_NAME":"ONEWEB-0509","OBJECT_ID":"2022-138Q","EPOCH":"2026-03-03T18:46:39.427392","MEAN_MOTION":13.19723523,"ECCENTRICITY":0.0001662,"INCLINATION":87.9249,"RA_OF_ASC_NODE":325.9534,"ARG_OF_PERICENTER":84.0055,"MEAN_ANOMALY":276.1267,"EPHEMERIS_TYPE":0,"CLASSIFICATION_TYPE":"U","NORAD_CAT_ID":54127,"ELEMENT_SET_NO":999,"REV_AT_EPOCH":16290,"BSTAR":-0.00011171,"MEAN_MOTION_DOT":-3.2e-7,"MEAN_MOTION_DDOT":0},{"OBJECT_NAME":"ONEWEB-0510","OBJECT_ID":"2022-138R","EPOCH":"2026-03-03T16:16:20.993664","MEAN_MOTION":13.20768451,"ECCENTRICITY":0.000177,"INCLINATION":87.9181,"RA_OF_ASC_NODE":295.5015,"ARG_OF_PERICENTER":67.7931,"MEAN_ANOMALY":292.339,"EPHEMERIS_TYPE":0,"CLASSIFICATION_TYPE":"U","NORAD_CAT_ID":54128,"ELEMENT_SET_NO":999,"REV_AT_EPOCH":16535,"BSTAR":0.00041538,"MEAN_MOTION_DOT":1.82e-6,"MEAN_MOTION_DDOT":0},{"OBJECT_NAME":"ONEWEB-0511","OBJECT_ID":"2022-138S","EPOCH":"2026-03-03T16:52:56.286336","MEAN_MOTION":13.19725895,"ECCENTRICITY":0.0001445,"INCLINATION":87.925,"RA_OF_ASC_NODE":325.9735,"ARG_OF_PERICENTER":74.6718,"MEAN_ANOMALY":285.4574,"EPHEMERIS_TYPE":0,"CLASSIFICATION_TYPE":"U","NORAD_CAT_ID":54129,"ELEMENT_SET_NO":999,"REV_AT_EPOCH":16292,"BSTAR":8.2426e-5,"MEAN_MOTION_DOT":4.6e-7,"MEAN_MOTION_DDOT":0},{"OBJECT_NAME":"ONEWEB-0512","OBJECT_ID":"2022-138T","EPOCH":"2026-03-03T16:41:32.794080","MEAN_MOTION":13.19728316,"ECCENTRICITY":0.0001492,"INCLINATION":87.9235,"RA_OF_ASC_NODE":325.9896,"ARG_OF_PERICENTER":84.4723,"MEAN_ANOMALY":275.658,"EPHEMERIS_TYPE":0,"CLASSIFICATION_TYPE":"U","NORAD_CAT_ID":54130,"ELEMENT_SET_NO":999,"REV_AT_EPOCH":16289,"BSTAR":-0.00042823,"MEAN_MOTION_DOT":-1.59e-6,"MEAN_MOTION_DDOT":0},{"OBJECT_NAME":"ONEWEB-0513","OBJECT_ID":"2022-138U","EPOCH":"2026-03-03T17:51:44.933184","MEAN_MOTION":13.20262094,"ECCENTRICITY":9.74e-5,"INCLINATION":87.925,"RA_OF_ASC_NODE":325.935,"ARG_OF_PERICENTER":107.3877,"MEAN_ANOMALY":252.7363,"EPHEMERIS_TYPE":0,"CLASSIFICATION_TYPE":"U","NORAD_CAT_ID":54131,"ELEMENT_SET_NO":999,"REV_AT_EPOCH":16280,"BSTAR":0.00017215,"MEAN_MOTION_DOT":8.2e-7,"MEAN_MOTION_DDOT":0},{"OBJECT_NAME":"ONEWEB-0514","OBJECT_ID":"2022-138V","EPOCH":"2026-03-03T18:53:28.998816","MEAN_MOTION":13.19726731,"ECCENTRICITY":0.0001716,"INCLINATION":87.924,"RA_OF_ASC_NODE":325.9604,"ARG_OF_PERICENTER":75.4067,"MEAN_ANOMALY":284.7256,"EPHEMERIS_TYPE":0,"CLASSIFICATION_TYPE":"U","NORAD_CAT_ID":54132,"ELEMENT_SET_NO":999,"REV_AT_EPOCH":16292,"BSTAR":5.316e-5,"MEAN_MOTION_DOT":3.4e-7,"MEAN_MOTION_DDOT":0},{"OBJECT_NAME":"ONEWEB-0515","OBJECT_ID":"2022-138W","EPOCH":"2026-03-03T15:58:10.952256","MEAN_MOTION":13.20773026,"ECCENTRICITY":0.0002464,"INCLINATION":87.9181,"RA_OF_ASC_NODE":295.4931,"ARG_OF_PERICENTER":75.7052,"MEAN_ANOMALY":284.4355,"EPHEMERIS_TYPE":0,"CLASSIFICATION_TYPE":"U","NORAD_CAT_ID":54133,"ELEMENT_SET_NO":999,"REV_AT_EPOCH":16537,"BSTAR":0.00024199,"MEAN_MOTION_DOT":1.11e-6,"MEAN_MOTION_DDOT":0},{"OBJECT_NAME":"ONEWEB-0516","OBJECT_ID":"2022-138X","EPOCH":"2026-03-03T18:17:05.984448","MEAN_MOTION":13.19725606,"ECCENTRICITY":0.0001773,"INCLINATION":87.9236,"RA_OF_ASC_NODE":325.9777,"ARG_OF_PERICENTER":83.5213,"MEAN_ANOMALY":276.6122,"EPHEMERIS_TYPE":0,"CLASSIFICATION_TYPE":"U","NORAD_CAT_ID":54134,"ELEMENT_SET_NO":999,"REV_AT_EPOCH":16292,"BSTAR":0.00022608,"MEAN_MOTION_DOT":1.03e-6,"MEAN_MOTION_DDOT":0},{"OBJECT_NAME":"ONEWEB-0517","OBJECT_ID":"2022-138Y","EPOCH":"2026-03-03T17:47:31.617888","MEAN_MOTION":13.19726313,"ECCENTRICITY":0.0001463,"INCLINATION":87.9241,"RA_OF_ASC_NODE":325.9693,"ARG_OF_PERICENTER":70.7649,"MEAN_ANOMALY":289.3642,"EPHEMERIS_TYPE":0,"CLASSIFICATION_TYPE":"U","NORAD_CAT_ID":54135,"ELEMENT_SET_NO":999,"REV_AT_EPOCH":16292,"BSTAR":9.1707e-5,"MEAN_MOTION_DOT":5.0e-7,"MEAN_MOTION_DDOT":0},{"OBJECT_NAME":"ONEWEB-0518","OBJECT_ID":"2022-138Z","EPOCH":"2026-03-03T18:14:48.253344","MEAN_MOTION":13.19724646,"ECCENTRICITY":0.0001677,"INCLINATION":87.9234,"RA_OF_ASC_NODE":325.9794,"ARG_OF_PERICENTER":85.8959,"MEAN_ANOMALY":274.2365,"EPHEMERIS_TYPE":0,"CLASSIFICATION_TYPE":"U","NORAD_CAT_ID":54136,"ELEMENT_SET_NO":999,"REV_AT_EPOCH":16292,"BSTAR":-0.00059292,"MEAN_MOTION_DOT":-2.24e-6,"MEAN_MOTION_DDOT":0},{"OBJECT_NAME":"ONEWEB-0519","OBJECT_ID":"2022-138AA","EPOCH":"2026-03-03T18:51:13.194432","MEAN_MOTION":13.19725787,"ECCENTRICITY":0.0001487,"INCLINATION":87.9246,"RA_OF_ASC_NODE":325.9534,"ARG_OF_PERICENTER":76.9095,"MEAN_ANOMALY":283.2204,"EPHEMERIS_TYPE":0,"CLASSIFICATION_TYPE":"U","NORAD_CAT_ID":54137,"ELEMENT_SET_NO":999,"REV_AT_EPOCH":16293,"BSTAR":5.9202e-5,"MEAN_MOTION_DOT":3.7e-7,"MEAN_MOTION_DDOT":0},{"OBJECT_NAME":"ONEWEB-0520","OBJECT_ID":"2022-138AB","EPOCH":"2026-03-03T17:52:04.873440","MEAN_MOTION":13.19725809,"ECCENTRICITY":0.0001655,"INCLINATION":87.9243,"RA_OF_ASC_NODE":325.9679,"ARG_OF_PERICENTER":89.0155,"MEAN_ANOMALY":271.1167,"EPHEMERIS_TYPE":0,"CLASSIFICATION_TYPE":"U","NORAD_CAT_ID":54138,"ELEMENT_SET_NO":999,"REV_AT_EPOCH":16291,"BSTAR":0.00010401,"MEAN_MOTION_DOT":5.5e-7,"MEAN_MOTION_DDOT":0},{"OBJECT_NAME":"ONEWEB-0521","OBJECT_ID":"2022-138AC","EPOCH":"2026-03-03T16:50:39.739776","MEAN_MOTION":13.19725324,"ECCENTRICITY":0.0001571,"INCLINATION":87.9246,"RA_OF_ASC_NODE":325.9607,"ARG_OF_PERICENTER":72.6268,"MEAN_ANOMALY":287.5037,"EPHEMERIS_TYPE":0,"CLASSIFICATION_TYPE":"U","NORAD_CAT_ID":54139,"ELEMENT_SET_NO":999,"REV_AT_EPOCH":16285,"BSTAR":8.0907e-5,"MEAN_MOTION_DOT":4.5e-7,"MEAN_MOTION_DDOT":0},{"OBJECT_NAME":"ONEWEB-0522","OBJECT_ID":"2022-138AD","EPOCH":"2026-03-03T18:10:16.105440","MEAN_MOTION":13.1972659,"ECCENTRICITY":0.000159,"INCLINATION":87.9248,"RA_OF_ASC_NODE":325.9504,"ARG_OF_PERICENTER":84.4578,"MEAN_ANOMALY":275.6736,"EPHEMERIS_TYPE":0,"CLASSIFICATION_TYPE":"U","NORAD_CAT_ID":54140,"ELEMENT_SET_NO":999,"REV_AT_EPOCH":16290,"BSTAR":0.00010286,"MEAN_MOTION_DOT":5.4e-7,"MEAN_MOTION_DDOT":0},{"OBJECT_NAME":"ONEWEB-0523","OBJECT_ID":"2022-138AE","EPOCH":"2026-03-03T15:40:00.147936","MEAN_MOTION":13.20772853,"ECCENTRICITY":0.0002038,"INCLINATION":87.9182,"RA_OF_ASC_NODE":295.5107,"ARG_OF_PERICENTER":63.4587,"MEAN_ANOMALY":296.6755,"EPHEMERIS_TYPE":0,"CLASSIFICATION_TYPE":"U","NORAD_CAT_ID":54141,"ELEMENT_SET_NO":999,"REV_AT_EPOCH":16537,"BSTAR":0.00020929,"MEAN_MOTION_DOT":9.8e-7,"MEAN_MOTION_DDOT":0}]
